*******************************************************************************
Ephemeris / WWW_USER Fri Sep 21 16:48:33 2018 Pasadena, USA      / Horizons    
*******************************************************************************
Target body name: Saturn (699)                    {source: sat389}
Center body name: Sun (10)                        {source: sat389}
Center-site name: BODY CENTER
*******************************************************************************
Start time      : A.D. 1977-Aug-21 00:00:00.0000 TDB
Stop  time      : A.D. 1977-Sep-21 00:00:00.0000 TDB
Step-size       : 1440 minutes
*******************************************************************************
Center geodetic : 0.00000000,0.00000000,0.0000000 {E-lon(deg),Lat(deg),Alt(km)}
Center cylindric: 0.00000000,0.00000000,0.0000000 {E-lon(deg),Dxy(km),Dz(km)}
Center radii    : 696000.0 x 696000.0 x 696000.0 k{Equator, meridian, pole}    
Output units    : KM-S                                                         
Output type     : GEOMETRIC cartesian states
Output format   : 2 (position and velocity)
Reference frame : ICRF/J2000.0                                                 
Coordinate systm: Ecliptic and Mean Equinox of Reference Epoch                 
*******************************************************************************
            JDTDB,            Calendar Date (TDB),                      X,                      Y,                      Z,                     VX,                     VY,                     VZ,
**************************************************************************************************************************************************************************************************
$$SOE
2443376.500000000, A.D. 1977-Aug-21 00:00:00.0000, -1.067068545127577E+09,  8.642788458299809E+08,  2.729403388986456E+07, -6.612087213248478E+00, -7.533009474180394E+00,  3.947795336492423E-01,
2443377.500000000, A.D. 1977-Aug-22 00:00:00.0000, -1.067639612592811E+09,  8.636278443759413E+08,  2.732812774943537E+07, -6.607110127561695E+00, -7.536461399462547E+00,  3.944305709498233E-01,
2443378.500000000, A.D. 1977-Aug-23 00:00:00.0000, -1.068210258214368E+09,  8.629765433681371E+08,  2.736219302361882E+07, -6.602272608880162E+00, -7.539951700660287E+00,  3.941178227046032E-01,
2443379.500000000, A.D. 1977-Aug-24 00:00:00.0000, -1.068780488371618E+09,  8.623249452075346E+08,  2.739622928464746E+07, -6.597557729465574E+00, -7.543325963635926E+00,  3.937574390675360E-01,
2443380.500000000, A.D. 1977-Aug-25 00:00:00.0000, -1.069350322341056E+09,  8.616730529404355E+08,  2.743023694368285E+07, -6.593051355789384E+00, -7.546784100500700E+00,  3.934639346556015E-01,
2443381.500000000, A.D. 1977-Aug-26 00:00:00.0000, -1.069919771598521E+09,  8.610208602268473E+08,  2.746422058628029E+07, -6.588680125305956E+00, -7.550282777984581E+00,  3.932048696632910E-01,
2443382.500000000, A.D. 1977-Aug-27 00:00:00.0000, -1.070488850559843E+09,  8.603683588161649E+08,  2.749818598090982E+07, -6.584453118323571E+00, -7.553951803660977E+00,  3.930505131839426E-01,
2443383.500000000, A.D. 1977-Aug-28 00:00:00.0000, -1.071057565144002E+09,  8.597155316923684E+08,  2.753214265015668E+07, -6.580232291537839E+00, -7.557825876058784E+00,  3.930035008975077E-01,
2443384.500000000, A.D. 1977-Aug-29 00:00:00.0000, -1.071625908882991E+09,  8.590623617751710E+08,  2.756609897312117E+07, -6.575847993733790E+00, -7.561839684977295E+00,  3.930157265617367E-01,
2443385.500000000, A.D. 1977-Aug-30 00:00:00.0000, -1.072193873701126E+09,  8.584088448259096E+08,  2.760005645032120E+07, -6.571489726036623E+00, -7.565911907053765E+00,  3.930609569654253E-01,
2443386.500000000, A.D. 1977-Aug-31 00:00:00.0000, -1.072761455831521E+09,  8.577549661819048E+08,  2.763402248270673E+07, -6.566940797184433E+00, -7.570178909315370E+00,  3.931911701452129E-01,
2443387.500000000, A.D. 1977-Sep-01 00:00:00.0000, -1.073328635371196E+09,  8.571007177286015E+08,  2.766799941411048E+07, -6.562187951822629E+00, -7.574470327647103E+00,  3.933145673643343E-01,
2443388.500000000, A.D. 1977-Sep-02 00:00:00.0000, -1.073895393916460E+09,  8.564460974158312E+08,  2.770198669693327E+07, -6.557175249248046E+00, -7.578756919439433E+00,  3.934127544232120E-01,
2443389.500000000, A.D. 1977-Sep-03 00:00:00.0000, -1.074461710491921E+09,  8.557911129217782E+08,  2.773597843301862E+07, -6.551970324245511E+00, -7.582900156658511E+00,  3.934195398787796E-01,
2443390.500000000, A.D. 1977-Sep-04 00:00:00.0000, -1.075027571131683E+09,  8.551357807151536E+08,  2.776996494562900E+07, -6.546678478628921E+00, -7.586781110709984E+00,  3.932836790530603E-01,
2443391.500000000, A.D. 1977-Sep-05 00:00:00.0000, -1.075592980165280E+09,  8.544801191238763E+08,  2.780393724145377E+07, -6.541480412587013E+00, -7.590568168145934E+00,  3.931103613141094E-01,
2443392.500000000, A.D. 1977-Sep-06 00:00:00.0000, -1.076157936345328E+09,  8.538241357429296E+08,  2.783789150982976E+07, -6.536217758721965E+00, -7.594181559527605E+00,  3.928424826877963E-01,
2443393.500000000, A.D. 1977-Sep-07 00:00:00.0000, -1.076722445225586E+09,  8.531678499116418E+08,  2.787181836484373E+07, -6.531144104924882E+00, -7.597611698382886E+00,  3.925003756066632E-01,
2443394.500000000, A.D. 1977-Sep-08 00:00:00.0000, -1.077286522488546E+09,  8.525112716558149E+08,  2.790571437438744E+07, -6.526245674529875E+00, -7.600943033233364E+00,  3.921255294356691E-01,
2443395.500000000, A.D. 1977-Sep-09 00:00:00.0000, -1.077850186753142E+09,  8.518544057883056E+08,  2.793957896096349E+07, -6.521559499289660E+00, -7.604284645493822E+00,  3.917790286756215E-01,
2443396.500000000, A.D. 1977-Sep-10 00:00:00.0000, -1.078413454815702E+09,  8.511972503295287E+08,  2.797341494306636E+07, -6.517091431021450E+00, -7.607675664810550E+00,  3.914798102325410E-01,
2443397.500000000, A.D. 1977-Sep-11 00:00:00.0000, -1.078976341129299E+09,  8.505397931737993E+08,  2.800723012606764E+07, -6.512667082434263E+00, -7.611253923046510E+00,  3.912849861905507E-01,
2443398.500000000, A.D. 1977-Sep-12 00:00:00.0000, -1.079538844948665E+09,  8.498820269851747E+08,  2.804102840468627E+07, -6.508301383704826E+00, -7.614821095676114E+00,  3.910902374673277E-01,
2443399.500000000, A.D. 1977-Sep-13 00:00:00.0000, -1.080100979187647E+09,  8.492239448767787E+08,  2.807481471279860E+07, -6.504054555202785E+00, -7.618595992102083E+00,  3.910175251097225E-01,
2443400.500000000, A.D. 1977-Sep-14 00:00:00.0000, -1.080662744568409E+09,  8.485655287525663E+08,  2.810859862699068E+07, -6.499763026711597E+00, -7.622556405560449E+00,  3.910367208800456E-01,
2443401.500000000, A.D. 1977-Sep-15 00:00:00.0000, -1.081224132769858E+09,  8.479067625069394E+08,  2.814238780703950E+07, -6.495308436809913E+00, -7.626674906312459E+00,  3.911243761406156E-01,
2443402.500000000, A.D. 1977-Sep-16 00:00:00.0000, -1.081785129655677E+09,  8.472476365687222E+08,  2.817618594280547E+07, -6.490697725150471E+00, -7.630892725526602E+00,  3.912491033262389E-01,
2443403.500000000, A.D. 1977-Sep-17 00:00:00.0000, -1.082345716078288E+09,  8.465881436542547E+08,  2.820999514319783E+07, -6.485799145036890E+00, -7.635117979053732E+00,  3.913522265600213E-01,
2443404.500000000, A.D. 1977-Sep-18 00:00:00.0000, -1.082905875423913E+09,  8.459282914138565E+08,  2.824380989487076E+07, -6.480841376775280E+00, -7.639259473425025E+00,  3.914067320973240E-01,
2443405.500000000, A.D. 1977-Sep-19 00:00:00.0000, -1.083465597238217E+09,  8.452680796448855E+08,  2.827762949180567E+07, -6.475639732337924E+00, -7.643390843310397E+00,  3.914348506683600E-01,
2443406.500000000, A.D. 1977-Sep-20 00:00:00.0000, -1.084024861930645E+09,  8.446075196650331E+08,  2.831144627147543E+07, -6.470285663598871E+00, -7.647311456975386E+00,  3.913404420153603E-01,
2443407.500000000, A.D. 1977-Sep-21 00:00:00.0000, -1.084583662659767E+09,  8.439466319090856E+08,  2.834524920806634E+07, -6.464933476141587E+00, -7.650975026684224E+00,  3.911152234819046E-01,
$$EOE
**************************************************************************************************************************************************************************************************
Coordinate system description:

  Ecliptic and Mean Equinox of Reference Epoch

    Reference epoch: J2000.0
    XY-plane: plane of the Earth's orbit at the reference epoch
              Note: obliquity of 84381.448 arcseconds wrt ICRF equator (IAU76)
    X-axis  : out along ascending node of instantaneous plane of the Earth's
              orbit and the Earth's mean equator at the reference epoch
    Z-axis  : perpendicular to the xy-plane in the directional (+ or -) sense
              of Earth's north pole at the reference epoch.

  Symbol meaning:

    JDTDB    Julian Day Number, Barycentric Dynamical Time
      X      X-component of position vector (km)                               
      Y      Y-component of position vector (km)                               
      Z      Z-component of position vector (km)                               
      VX     X-component of velocity vector (km/sec)                           
      VY     Y-component of velocity vector (km/sec)                           
      VZ     Z-component of velocity vector (km/sec)                           

Geometric states/elements have no aberrations applied.

 Computations by ...
     Solar System Dynamics Group, Horizons On-Line Ephemeris System
     4800 Oak Grove Drive, Jet Propulsion Laboratory
     Pasadena, CA  91109   USA
     Information: http://ssd.jpl.nasa.gov/
     Connect    : telnet://ssd.jpl.nasa.gov:6775  (via browser)
                  http://ssd.jpl.nasa.gov/?horizons
                  telnet ssd.jpl.nasa.gov 6775    (via command-line)
     Author     : Jon.D.Giorgini@jpl.nasa.gov
*******************************************************************************
